OBJECT_NAME,OBJECT_ID,EPOCH,MEAN_MOTION,ECCENTRICITY,INCLINATION,RA_OF_ASC_NODE,ARG_OF_PERICENTER,MEAN_ANOMALY,EPHEMERIS_TYPE,CLASSIFICATION_TYPE,NORAD_CAT_ID,ELEMENT_SET_NO,REV_AT_EPOCH,BSTAR,MEAN_MOTION_DOT,MEAN_MOTION_DDOT
INTELSAT 21 (IS-21),2012-045A,2026-06-10T06:10:19.740288,1.00267022,.00016769,0.0227,283.3658,177.3275,192.4944,0,U,38749,999,5045,0,-.267E-5,0
INTELSAT 23 (IS-23),2012-057A,2026-06-10T06:11:42.108000,1.00269083,.00000889,0.0174,299.9383,129.2663,229.3544,0,U,38867,999,4988,0,-.267E-5,0
FM-6,2013-058A,2026-06-08T15:06:37.024416,1.00255605,.00027713,0.0107,82.6412,69.5183,215.1325,0,U,39360,999,4598,0,.3E-7,0
INTELSAT 30 (IS-30),2014-062A,2026-06-10T00:51:42.732864,1.00267059,.00008212,0.0228,41.0330,352.5032,142.6782,0,U,40271,999,672,0,-.132E-5,0
DIRECTV 14,2014-078B,2026-06-09T01:17:09.208320,1.00271044,.00002356,0.0091,1.3268,206.1301,330.0282,0,U,40333,999,4196,0,-.109E-5,0
DIRECTV 15,2015-026A,2026-06-10T05:57:33.255648,1.00269531,.00006536,0.0184,3.7345,280.2777,321.1253,0,U,40663,999,4039,0,-.85E-6,0
SKY MEXICO-1,2015-026B,2026-06-10T04:21:42.039648,1.00270961,.0002102,0.0149,307.2100,150.5136,147.4526,0,U,40664,999,4038,0,-.217E-5,0
INTELSAT 34 (IS-34),2015-039A,2026-06-10T06:11:04.668288,1.00270241,.00003642,0.0113,322.7949,13.9529,319.1622,0,U,40874,999,3956,0,-.268E-5,0
INTELSAT 31 (IS-31),2016-035A,2026-06-10T05:59:40.553088,1.00269751,.0000987,0.0171,265.1306,337.9900,10.3653,0,U,41581,999,3661,0,-.133E-5,0
INTELSAT 36 (IS-36),2016-053A,2026-06-10T05:03:47.356128,1.00270448,.00018589,0.0115,357.5036,336.5539,68.9581,0,U,41747,999,3588,0,-.7E-7,0
INTELSAT 32E (IS-32E),2017-007B,2026-06-09T02:04:35.551776,1.00274840,.0000672,0.0023,348.0424,336.8096,280.6015,0,U,41945,999,3414,0,-.252E-5,0
INTELSAT 35E (IS-35E),2017-041A,2026-06-09T23:26:20.502816,1.00271386,.00016618,0.0181,6.8127,70.9977,137.6483,0,U,42818,999,3274,0,-.221E-5,0
INTELSAT 37E (IS-37E),2017-059A,2026-06-10T06:21:41.151168,1.00270075,.00023716,0.0183,5.5075,95.9590,234.5834,0,U,42950,999,3199,0,-.123E-5,0
AZERSPACE 2 (IS-38),2018-074A,2026-06-10T04:57:03.002400,1.00271659,.00012334,0.0026,68.5663,12.8664,296.5131,0,U,43632,999,2837,0,.154E-5,0
HORIZONS-3E,2018-074B,2026-06-09T03:52:26.934240,1.00270197,.0000957,0.0093,158.1609,124.5481,201.9406,0,U,43633,999,2826,0,-.14E-6,0
AT&T T-16,2019-034A,2026-06-09T16:16:49.046880,1.00268740,.00006409,0.0247,68.1337,190.5571,142.7032,0,U,44333,999,2555,0,-.98E-6,0
INTELSAT 39 (IS-39),2019-049B,2026-06-10T05:01:55.035264,1.00270440,.00009033,0.0193,319.5347,353.1759,83.2984,0,U,44476,999,2505,0,.51E-6,0
GALAXY 30 (G-30),2020-056C,2026-06-10T05:51:11.366784,1.00273455,.00021139,0.0193,321.8102,112.8333,146.7690,0,U,46114,999,2122,0,.54E-6,0
GALAXY 33 (G-33),2022-128A,2026-06-10T05:44:48.098112,1.00271606,.00017948,0.0097,315.2442,130.7369,125.8396,0,U,54026,999,1367,0,.96E-6,0
GALAXY 34 (G-34),2022-128B,2026-06-08T23:02:06.902304,1.00274719,.00018617,0.0154,329.7482,136.9348,7.2031,0,U,54027,999,1383,0,.75E-6,0
GALAXY 31 (G-31),2022-153A,2026-06-10T05:52:18.758784,1.00272139,.00012332,0.0153,287.9232,150.1222,147.6497,0,U,54243,999,706,0,.31E-6,0
GALAXY 32 (G-32),2022-153B,2026-06-09T07:46:18.681312,1.00270919,.00021646,0.0091,331.9838,65.0548,246.2445,0,U,54244,999,1306,0,-.157E-5,0
GALAXY 35 (G-35),2022-170A,2026-06-09T11:00:24.946848,1.00271145,.00020317,0.0337,106.4075,335.1959,248.2408,0,U,54741,999,1281,0,-.145E-5,0
GALAXY 36 (G-36),2022-170B,2026-06-10T06:01:25.384800,1.00270518,.00026057,0.0078,28.5141,55.3387,176.1198,0,U,54742,999,1270,0,-.168E-5,0
GALAXY 37 (G-37),2023-112A,2026-06-10T05:50:41.415360,1.00271927,.00018665,0.0183,0.4076,80.0650,138.8145,0,U,57493,999,1047,0,.65E-6,0
